[{"OBJECT_NAME":"STARLINK-4724","OBJECT_ID":"2022-107C","EPOCH":"2026-03-09T16:12:09.707040","MEAN_MOTION":15.08844294,"ECCENTRICITY":0.00010108,"INCLINATION":53.2171,"RA_OF_ASC_NODE":229.0876,"ARG_OF_PERICENTER":70.0225,"MEAN_ANOMALY":290.0876,"EPHEMERIS_TYPE":0,"CLASSIFICATION_TYPE":"U","NORAD_CAT_ID":53702,"ELEMENT_SET_NO":999,"REV_AT_EPOCH":19509,"BSTAR":-2.4367372e-5,"MEAN_MOTION_DOT":-6.76e-6,"MEAN_MOTION_DDOT":0},{"OBJECT_NAME":"COSMOS 2251 DEB","OBJECT_ID":"1993-036EU","EPOCH":"2026-03-09T14:44:02.306976","MEAN_MOTION":15.10275873,"ECCENTRICITY":0.0002082,"INCLINATION":74.0027,"RA_OF_ASC_NODE":262.4484,"ARG_OF_PERICENTER":258.1067,"MEAN_ANOMALY":101.9891,"EPHEMERIS_TYPE":0,"CLASSIFICATION_TYPE":"U","NORAD_CAT_ID":33939,"ELEMENT_SET_NO":999,"REV_AT_EPOCH":90059,"BSTAR":0.0040153,"MEAN_MOTION_DOT":0.00066338,"MEAN_MOTION_DDOT":0}]
